ONEWEB-0401             
1 50481U 21132N   23362.48732736  .00000029  00000+0  42010-4 0  9994
2 50481  87.9216 154.8668 0001179 105.5360 254.5902 13.18591583102777
ONEWEB-0402             
1 50482U 21132P   23362.45271550  .00000096  00000+0  20944-3 0  9999
2 50482  87.9216 154.8704 0001500 123.4776 236.6499 13.18784413102797
ONEWEB-0403             
1 50483U 21132Q   23362.47635938  .00000111  00000+0  24792-3 0  9999
2 50483  87.9217 154.8698 0001197  93.7111 266.4158 13.18685725102750
ONEWEB-0404             
1 50484U 21132R   23362.57982235 -.00000442  00000+0 -12831-2 0  9995
2 50484  87.8962 200.2353 0001322  63.3616 296.7647 13.11414196 97526
ONEWEB-0405             
1 50485U 21132S   23362.41629404  .00000035  00000+0  55328-4 0  9991
2 50485  87.9219 154.8711 0001106 112.1075 248.0174 13.18685146103140
ONEWEB-0406             
1 50486U 21132T   23362.48100959  .00000042  00000+0  75031-4 0  9999
2 50486  87.9215 154.8670 0001344  77.7787 282.3495 13.18590027102780
ONEWEB-0407             
1 50487U 21132U   23362.47468385  .00000093  00000+0  20276-3 0  9995
2 50487  87.9215 154.8767 0001271  99.5252 260.6024 13.18587697102726
ONEWEB-0409             
1 50488U 21132V   23362.57820645 -.00000361  00000+0 -10548-2 0  9998
2 50488  87.8953 200.2467 0001728  66.3636 293.7673 13.11416458 97418
